[
    {
        "Altitude(m)": 571642.819602482,
        "Argument of Periapsis(deg)": 0.026491964442854003,
        "Eccentricity": 0.0,
        "Inclination(deg)": 53.0,
        "Latitude(deg)": -52.62907310182443,
        "Longitude(deg)": -127.0725814544376,
        "Mean Anomaly(deg)": 276.73007147031035,
        "RAAN(deg)": 54.96057347411207,
        "Satellite Name": "Starlink Shell 1 256",
        "Satellite Number": 256,
        "Semi-Major Axis(m)": 6931778.249405717,
        "Time(s)": 760
    },
    {
        "Altitude(m)": 571603.8331462842,
        "Argument of Periapsis(deg)": 0.02684054292236524,
        "Eccentricity": 0.0,
        "Inclination(deg)": 53.0,
        "Latitude(deg)": -52.52857367467199,
        "Longitude(deg)": -126.10201561958421,
        "Mean Anomaly(deg)": 277.35690267386707,
        "RAAN(deg)": 54.9600547040346,
        "Satellite Name": "Starlink Shell 1 256",
        "Satellite Number": 256,
        "Semi-Major Axis(m)": 6931778.249405717,
        "Time(s)": 770
    },
    {
        "Altitude(m)": 571561.4614843467,
        "Argument of Periapsis(deg)": 0.027189121401876473,
        "Eccentricity": 0.0,
        "Inclination(deg)": 53.0,
        "Latitude(deg)": -52.41946676124022,
        "Longitude(deg)": -125.13624691492842,
        "Mean Anomaly(deg)": 277.9837338774238,
        "RAAN(deg)": 54.95953593395713,
        "Satellite Name": "Starlink Shell 1 256",
        "Satellite Number": 256,
        "Semi-Major Axis(m)": 6931778.249405717,
        "Time(s)": 780
    },
    {
        "Altitude(m)": 571515.7214963661,
        "Argument of Periapsis(deg)": 0.02753769988138771,
        "Eccentricity": 0.0,
        "Inclination(deg)": 53.0,
        "Latitude(deg)": -52.30182769979555,
        "Longitude(deg)": -124.17562128322122,
        "Mean Anomaly(deg)": 278.61056508098056,
        "RAAN(deg)": 54.95901716387965,
        "Satellite Name": "Starlink Shell 1 256",
        "Satellite Number": 256,
        "Semi-Major Axis(m)": 6931778.249405717,
        "Time(s)": 790
    },
    {
        "Altitude(m)": 571466.631402984,
        "Argument of Periapsis(deg)": 0.02788627836089895,
        "Eccentricity": 0.0,
        "Inclination(deg)": 53.0,
        "Latitude(deg)": -52.17573675335767,
        "Longitude(deg)": -123.220471493281,
        "Mean Anomaly(deg)": 279.2373962845372,
        "RAAN(deg)": 54.95849839380218,
        "Satellite Name": "Starlink Shell 1 256",
        "Satellite Number": 256,
        "Semi-Major Axis(m)": 6931778.249405717,
        "Time(s)": 800
    },
    {
        "Altitude(m)": 571414.210757886,
        "Argument of Periapsis(deg)": 0.02823485684041019,
        "Eccentricity": 0.0,
        "Inclination(deg)": 53.0,
        "Latitude(deg)": -52.04127885498161,
        "Longitude(deg)": -122.27111602587605,
        "Mean Anomaly(deg)": 279.86422748809395,
        "RAAN(deg)": 54.95797962372471,
        "Satellite Name": "Starlink Shell 1 256",
        "Satellite Number": 256,
        "Semi-Major Axis(m)": 6931778.249405717,
        "Time(s)": 810
    },
    {
        "Altitude(m)": 571358.4804393457,
        "Argument of Periapsis(deg)": 0.028583435319921423,
        "Eccentricity": 0.0,
        "Inclination(deg)": 53.0,
        "Latitude(deg)": -51.89854334436778,
        "Longitude(deg)": -121.32785804575138,
        "Mean Anomaly(deg)": 280.49105869165066,
        "RAAN(deg)": 54.95746085364723,
        "Satellite Name": "Starlink Shell 1 256",
        "Satellite Number": 256,
        "Semi-Major Axis(m)": 6931778.249405717,
        "Time(s)": 820
    },
    {
        "Altitude(m)": 571299.462641186,
        "Argument of Periapsis(deg)": 0.028932013799432665,
        "Eccentricity": 0.0,
        "Inclination(deg)": 53.0,
        "Latitude(deg)": -51.747623697417325,
        "Longitude(deg)": -120.39098597161474,
        "Mean Anomaly(deg)": 281.1178898952074,
        "RAAN(deg)": 54.956942083569764,
        "Satellite Name": "Starlink Shell 1 256",
        "Satellite Number": 256,
        "Semi-Major Axis(m)": 6931778.249405717,
        "Time(s)": 830
    },
    {
        "Altitude(m)": 571237.1808631573,
        "Argument of Periapsis(deg)": 0.029280592278943897,
        "Eccentricity": 0.0,
        "Inclination(deg)": 53.0,
        "Latitude(deg)": -51.588617250542534,
        "Longitude(deg)": -119.46077261825516,
        "Mean Anomaly(deg)": 281.7447210987641,
        "RAAN(deg)": 54.95642331349229,
        "Satellite Name": "Starlink Shell 1 256",
        "Satellite Number": 256,
        "Semi-Major Axis(m)": 6931778.249405717,
        "Time(s)": 840
    },
    {
        "Altitude(m)": 571171.6599007696,
        "Argument of Periapsis(deg)": 0.029629170758455132,
        "Eccentricity": 0.0,
        "Inclination(deg)": 53.0,
        "Latitude(deg)": -51.421624921430436,
        "Longitude(deg)": -118.53747442223234,
        "Mean Anomaly(deg)": 282.37155230232077,
        "RAAN(deg)": 54.95590454341481,
        "Satellite Name": "Starlink Shell 1 256",
        "Satellite Number": 256,
        "Semi-Major Axis(m)": 6931778.249405717,
        "Time(s)": 850
    },
    {
        "Altitude(m)": 571102.9258345177,
        "Argument of Periapsis(deg)": 0.02997774923796637,
        "Eccentricity": 0.0,
        "Inclination(deg)": 53.0,
        "Latitude(deg)": -51.2467509279121,
        "Longitude(deg)": -117.62133243004361,
        "Mean Anomaly(deg)": 282.99838350587754,
        "RAAN(deg)": 54.95538577333734,
        "Satellite Name": "Starlink Shell 1 256",
        "Satellite Number": 256,
        "Semi-Major Axis(m)": 6931778.249405717,
        "Time(s)": 860
    },
    {
        "Altitude(m)": 571031.0060186062,
        "Argument of Periapsis(deg)": 0.030326327717477602,
        "Eccentricity": 0.0,
        "Inclination(deg)": 53.0,
        "Latitude(deg)": -51.06410250652554,
        "Longitude(deg)": -116.71257084361949,
        "Mean Anomaly(deg)": 283.62521470943426,
        "RAAN(deg)": 54.95486700325987,
        "Satellite Name": "Starlink Shell 1 256",
        "Satellite Number": 256,
        "Semi-Major Axis(m)": 6931778.249405717,
        "Time(s)": 870
    },
    {
        "Altitude(m)": 570955.9290690579,
        "Argument of Periapsis(deg)": 0.030674906196988847,
        "Eccentricity": 0.0,
        "Inclination(deg)": 53.0,
        "Latitude(deg)": -50.87378963226875,
        "Longitude(deg)": -115.8113981627913,
        "Mean Anomaly(deg)": 284.2520459129909,
        "RAAN(deg)": 54.954348233182394,
        "Satellite Name": "Starlink Shell 1 256",
        "Satellite Number": 256,
        "Semi-Major Axis(m)": 6931778.249405717,
        "Time(s)": 880
    },
    {
        "Altitude(m)": 570877.7248513087,
        "Argument of Periapsis(deg)": 0.031023484676500086,
        "Eccentricity": 0.0,
        "Inclination(deg)": 53.0,
        "Latitude(deg)": -50.675924740955274,
        "Longitude(deg)": -114.91800671851759,
        "Mean Anomaly(deg)": 284.8788771165477,
        "RAAN(deg)": 54.953829463104924,
        "Satellite Name": "Starlink Shell 1 256",
        "Satellite Number": 256,
        "Semi-Major Axis(m)": 6931778.249405717,
        "Time(s)": 890
    },
    {
        "Altitude(m)": 570796.424467235,
        "Argument of Periapsis(deg)": 0.03137206315601132,
        "Eccentricity": 0.0,
        "Inclination(deg)": 53.0,
        "Latitude(deg)": -50.47062245547804,
        "Longitude(deg)": -114.03257227366358,
        "Mean Anomaly(deg)": 285.50570832010436,
        "RAAN(deg)": 54.953310693027454,
        "Satellite Name": "Starlink Shell 1 256",
        "Satellite Number": 256,
        "Semi-Major Axis(m)": 6931778.249405717,
        "Time(s)": 900
    },
    {
        "Altitude(m)": 570712.0602416574,
        "Argument of Periapsis(deg)": 0.03172064163552255,
        "Eccentricity": 0.0,
        "Inclination(deg)": 53.0,
        "Latitude(deg)": -50.25799931717917,
        "Longitude(deg)": -113.15525519969046,
        "Mean Anomaly(deg)": 286.1325395236611,
        "RAAN(deg)": 54.95279192294998,
        "Satellite Name": "Starlink Shell 1 256",
        "Satellite Number": 256,
        "Semi-Major Axis(m)": 6931778.249405717,
        "Time(s)": 910
    },
    {
        "Altitude(m)": 570624.6657082874,
        "Argument of Periapsis(deg)": 0.0320692201150338,
        "Eccentricity": 0.0,
        "Inclination(deg)": 53.0,
        "Latitude(deg)": -50.038173523414955,
        "Longitude(deg)": -112.28620019872989,
        "Mean Anomaly(deg)": 286.75937072721786,
        "RAAN(deg)": 54.95227315287251,
        "Satellite Name": "Starlink Shell 1 256",
        "Satellite Number": 256,
        "Semi-Major Axis(m)": 6931778.249405717,
        "Time(s)": 920
    },
    {
        "Altitude(m)": 570534.2755951515,
        "Argument of Periapsis(deg)": 0.032417798594545036,
        "Eccentricity": 0.0,
        "Inclination(deg)": 53.0,
        "Latitude(deg)": -49.811264672286946,
        "Longitude(deg)": -111.42553607897341,
        "Mean Anomaly(deg)": 287.3862019307745,
        "RAAN(deg)": 54.95175438279502,
        "Satellite Name": "Starlink Shell 1 256",
        "Satellite Number": 256,
        "Semi-Major Axis(m)": 6931778.249405717,
        "Time(s)": 930
    },
    {
        "Altitude(m)": 570440.925809496,
        "Argument of Periapsis(deg)": 0.03276637707405627,
        "Eccentricity": 0.0,
        "Inclination(deg)": 53.0,
        "Latitude(deg)": -49.577393515392096,
        "Longitude(deg)": -110.57337709119071,
        "Mean Anomaly(deg)": 288.01303313433124,
        "RAAN(deg)": 54.95123561271756,
        "Satellite Name": "Starlink Shell 1 256",
        "Satellite Number": 256,
        "Semi-Major Axis(m)": 6931778.249405717,
        "Time(s)": 940
    }
]